NORAD_CAT_ID,OBJECT_NAME,OBJECT_TYPE,EPOCH,MEAN_MOTION,ECCENTRICITY,INCLINATION,RA_OF_ASC_NODE,ARG_OF_PERICENTER,MEAN_ANOMALY,BSTAR,MEAN_MOTION_DOT,MEAN_MOTION_DDOT,TLE_LINE0,TLE_LINE1,TLE_LINE2,SEMIMAJOR_AXIS,PERIOD,APOGEE,PERIGEE,DECAYED
52140.0,STARLINK-3682,PAYLOAD,2022-12-22 03:21:58,15.08822448,0.0002545,53.2192,297.4015,33.4912,326.624,-0.00010815,-2.008e-05,0.0,0 STARLINK-3682,1 52140U 22029BE  22356.14026021 -.00002008  00000-0 -10815-3 0  9991,2 52140  53.2192 297.4015 0002545  33.4912 326.6240 15.08822448 43778,6917.934,95.439,541.56,538.038,0.0
52140.0,STARLINK-3682,PAYLOAD,2022-12-22 08:08:06,15.08840943,0.0002327,53.2188,296.5073,32.9796,327.1341,4.1843e-05,3.78e-06,0.0,0 STARLINK-3682,1 52140U 22029BE  22356.33896508  .00000378  00000-0  41843-4 0  9999,2 52140  53.2188 296.5073 0002327  32.9796 327.1341 15.08840943 43801,6917.878000000002,95.437,541.352,538.133,0.0
52140.0,STARLINK-3682,PAYLOAD,2022-12-23 00:01:58,15.08831026,0.0002354,53.2186,293.5345,31.0377,329.0753,0.00020924,3.043e-05,0.0,0 STARLINK-3682,1 52140U 22029BE  22357.00136968  .00003043  00000-0  20924-3 0  9999,2 52140  53.2186 293.5345 0002354  31.0377 329.0753 15.08831026 43904,6917.908,95.438,541.401,538.144,0.0
52140.0,STARLINK-3682,PAYLOAD,2022-12-23 12:45:04,15.08819063,0.0002487,53.2184,291.1561,31.7617,328.3525,0.00016201,2.29e-05,0.0,0 STARLINK-3682,1 52140U 22029BE  22357.53130456  .00002290  00000-0  16201-3 0  9999,2 52140  53.2184 291.1561 0002487  31.7617 328.3525 15.08819063 43981,6917.944,95.439,541.53,538.089,0.0
52140.0,STARLINK-3682,PAYLOAD,2022-12-24 04:38:54,15.08842765,0.0002576,53.2184,288.1822,34.0096,326.1061,0.00027955,4.164e-05,0.0,0 STARLINK-3682,1 52140U 22029BE  22358.19369109  .00004164  00000-0  27955-3 0  9991,2 52140  53.2184 288.1822 0002576  34.0096 326.1061 15.08842765 44081,6917.871999999999,95.437,541.519,537.955,0.0
52140.0,STARLINK-3682,PAYLOAD,2022-12-24 12:35:50,15.08839727,0.0002639,53.2184,286.6953,34.4064,325.7098,0.00019503,2.817e-05,0.0,0 STARLINK-3682,1 52140U 22029BE  22358.52489520  .00002817  00000-0  19503-3 0  9991,2 52140  53.2184 286.6953 0002639  34.4064 325.7098 15.08839727 44133,6917.880999999999,95.438,541.572,537.9209999999998,0.0
52140.0,STARLINK-3682,PAYLOAD,2022-12-25 01:18:56,15.08774131,0.0002933,53.2186,284.3157,43.0275,317.0946,0.0012602,0.0001979,0.0,0 STARLINK-3682,1 52140U 22029BE  22359.05482310  .00019790  00000-0  12602-2 0  9990,2 52140  53.2186 284.3157 0002933  43.0275 317.0946 15.08774131 44215,6918.081999999999,95.442,541.976,537.918,0.0
52140.0,STARLINK-3682,PAYLOAD,2022-12-25 02:54:18,15.08844174,0.0002581,53.2188,284.0195,33.5999,326.5156,0.00013671,1.888e-05,0.0,0 STARLINK-3682,1 52140U 22029BE  22359.12105021  .00001888  00000-0  13671-3 0  9996,2 52140  53.2188 284.0195 0002581  33.5999 326.5156 15.08844174 44226,6917.868,95.437,541.518,537.947,0.0
52140.0,STARLINK-3682,PAYLOAD,2022-12-25 18:48:10,15.08841676,0.0002624,53.2185,281.0463,33.4515,326.6643,8.109600000000001e-06,-1.59e-06,0.0,0 STARLINK-3682,1 52140U 22029BE  22359.78345427 -.00000159  00000-0  81096-5 0  9993,2 52140  53.2185 281.0463 0002624  33.4515 326.6643 15.08841676 44326,6917.875,95.437,541.556,537.925,0.0
52140.0,STARLINK-3682,PAYLOAD,2022-12-26 01:09:43,15.088335999999998,0.0002668,53.2182,279.8559,35.6986,324.4184,-6.810199999999999e-05,-1.372e-05,0.0,0 STARLINK-3682,1 52140U 22029BE  22360.04842247 -.00001372  00000-0 -68102-4 0  9997,2 52140  53.2182 279.8559 0002668  35.6986 324.4184 15.08833600 44366,6917.9,95.438,541.611,537.919,0.0
52140.0,STARLINK-3682,PAYLOAD,2022-12-26 12:17:25,15.08842887,0.0002562,53.2185,277.7739,37.6498,322.4673,-2.9043000000000013e-05,-7.51e-06,0.0,0 STARLINK-3682,1 52140U 22029BE  22360.51209510 -.00000751  00000-0 -29043-4 0  9990,2 52140  53.2185 277.7739 0002562  37.6498 322.4673 15.08842887 44435,6917.871999999999,95.437,541.509,537.964,0.0
52140.0,STARLINK-3682,PAYLOAD,2022-12-26 21:49:43,15.08850743,0.0002615,53.218,275.9899,35.2753,324.8412,2.618e-05,1.28e-06,0.0,0 STARLINK-3682,1 52140U 22029BE  22360.90952722  .00000128  00000-0  26180-4 0  9998,2 52140  53.2180 275.9899 0002615  35.2753 324.8412 15.08850743 44497,6917.848000000001,95.437,541.5219999999998,537.904,0.0
52140.0,STARLINK-3682,PAYLOAD,2022-12-27 04:11:15,15.08855825,0.0002598,53.218,274.8006,35.8822,324.2344,-0.00010279,-1.925e-05,0.0,0 STARLINK-3682,1 52140U 22029BE  22361.17448638 -.00001925  00000-0 -10279-3 0  9993,2 52140  53.2180 274.8006 0002598  35.8822 324.2344 15.08855825 44537,6917.831999999999,95.437,541.494,537.9,0.0
52140.0,STARLINK-3682,PAYLOAD,2022-12-27 21:40:29,15.08848704,0.0002611,53.2181,271.5298,33.8189,326.2969,0.00024185,3.564e-05,0.0,0 STARLINK-3682,1 52140U 22029BE  22361.90311837  .00003564  00000-0  24185-3 0  9994,2 52140  53.2181 271.5298 0002611  33.8189 326.2969 15.08848704 44640,6917.854,95.437,541.525,537.913,0.0
52140.0,STARLINK-3682,PAYLOAD,2022-12-27 23:15:52,15.08858771,0.0002677,53.2182,271.2325,33.4963,326.6198,8.862799999999999e-05,1.123e-05,0.0,0 STARLINK-3682,1 52140U 22029BE  22361.96935496  .00001123  00000-0  88628-4 0  9995,2 52140  53.2182 271.2325 0002677  33.4963 326.6198 15.08858771 44651,6917.823,95.436,541.54,537.836,0.0
52140.0,STARLINK-3682,PAYLOAD,2022-12-28 00:51:15,15.08849932,0.0002673,53.2182,270.9353,31.6488,328.4665,0.00024953,3.686e-05,0.0,0 STARLINK-3682,1 52140U 22029BE  22362.03559760  .00003686  00000-0  24953-3 0  9996,2 52140  53.2182 270.9353 0002673  31.6488 328.4665 15.08849932 44665,6917.85,95.437,541.564,537.866,0.0
52140.0,STARLINK-3682,PAYLOAD,2022-12-29 00:42:03,15.08843402,0.0002528,53.218,266.4741,34.8446,325.2711,9.1378e-06,-1.43e-06,0.0,0 STARLINK-3682,1 52140U 22029BE  22363.02920544 -.00000143  00000-0  91378-5 0  9991,2 52140  53.2180 266.4741 0002528  34.8446 325.2711 15.08843402 44812,6917.87,95.437,541.484,537.986,0.0
52140.0,STARLINK-3682,PAYLOAD,2022-12-29 18:11:18,15.08848142,0.0002493,53.2171,263.2044,33.7503,326.3648,-0.00028376,-4.803e-05,0.0,0 STARLINK-3682,1 52140U 22029BE  22363.75785350 -.00004803  00000-0 -28376-3 0  9999,2 52140  53.2171 263.2044 0002493  33.7503 326.3648 15.08848142 44925,6917.856,95.437,541.445,537.996,0.0
52140.0,STARLINK-3682,PAYLOAD,2022-12-30 10:05:09,15.088378099999998,0.0002088,53.2178,260.2309,41.3089,318.8061,-9.6559e-05,-1.825e-05,0.0,0 STARLINK-3682,1 52140U 22029BE  22364.42025336 -.00001825  00000-0 -96559-4 0  9995,2 52140  53.2178 260.2309 0002088  41.3089 318.8061 15.08837810 45024,6917.887,95.438,541.197,538.308,0.0
52140.0,STARLINK-3682,PAYLOAD,2022-12-31 00:23:37,15.08852526,0.0002669,53.2169,257.5542,32.248000000000005,327.8675,0.0004276,6.526e-05,0.0,0 STARLINK-3682,1 52140U 22029BE  22365.01640496  .00006526  00000-0  42760-3 0  9996,2 52140  53.2169 257.5542 0002669  32.2480 327.8675 15.08852526 45113,6917.842,95.437,541.553,537.861,0.0
52140.0,STARLINK-3682,PAYLOAD,2022-12-31 09:55:55,15.08857249,0.0002819999999999,53.2163,255.768,30.261,329.8545,0.00043942,6.715e-05,0.0,0 STARLINK-3682,1 52140U 22029BE  22365.41384081  .00006715  00000-0  43942-3 0  9998,2 52140  53.2163 255.7680 0002820  30.2610 329.8545 15.08857249 45173,6917.828,95.436,541.643,537.742,0.0
52140.0,STARLINK-3682,PAYLOAD,2023-01-01 01:49:47,15.0884255,0.0002516,53.2166,252.7954,30.3807,329.733,-7.4342e-05,-1.472e-05,0.0,0 STARLINK-3682,1 52140U 22029BE  23001.07624486 -.00001472  00000-0 -74342-4 0  9990,2 52140  53.2166 252.7954 0002516  30.3807 329.7330 15.08842550 45279,6917.873000000001,95.437,541.4780000000002,537.997,0.0
52140.0,STARLINK-3682,PAYLOAD,2023-01-01 09:46:43,15.08838297,0.0002526999999999,53.217,251.3077,30.0138,330.0998,0.00037761,5.726e-05,0.0,0 STARLINK-3682,1 52140U 22029BE  23001.40744654  .00005726  00000-0  37761-3 0  9994,2 52140  53.2170 251.3077 0002527  30.0138 330.0998 15.08838297 45325,6917.886,95.438,541.499,538.002,0.0
52140.0,STARLINK-3682,PAYLOAD,2023-01-01 22:29:48,15.0883175,0.000259,53.2162,248.9306,31.2687,328.8459,0.00023107,3.39e-05,0.0,0 STARLINK-3682,1 52140U 22029BE  23001.93737202  .00003390  00000-0  23107-3 0  9997,2 52140  53.2162 248.9306 0002590  31.2687 328.8459 15.08831750 45408,6917.906,95.438,541.562,537.979,0.0
52140.0,STARLINK-3682,PAYLOAD,2023-01-02 12:48:17,15.08831155,0.0002606,53.2158,246.2547,31.1569,328.9578,0.00013457,1.853e-05,0.0,0 STARLINK-3682,1 52140U 22029BE  23002.53353656  .00001853  00000-0  13457-3 0  9990,2 52140  53.2158 246.2547 0002606  31.1569 328.9578 15.08831155 45498,6917.906999999997,95.438,541.575,537.97,0.0
52140.0,STARLINK-3682,PAYLOAD,2023-01-02 22:20:36,15.08830597,0.0002487,53.2162,244.4703,30.7741,329.3396,0.00029531,4.414e-05,0.0,0 STARLINK-3682,1 52140U 22029BE  23002.93098061  .00004414  00000-0  29531-3 0  9996,2 52140  53.2162 244.4703 0002487  30.7741 329.3396 15.08830597 45550,6917.909000000002,95.438,541.495,538.054,0.0
52140.0,STARLINK-3682,PAYLOAD,2023-01-03 01:31:20,15.08870777,0.0002679,53.2161,243.8755,26.637,333.4759,-0.00086887,-0.00014102,0.0,0 STARLINK-3682,1 52140U 22029BE  23003.06343717 -.00014102  00000-0 -86887-3 0  9996,2 52140  53.2161 243.8755 0002679  26.6370 333.4759 15.08870777 45579,6917.786,95.436,541.505,537.798,0.0
52140.0,STARLINK-3682,PAYLOAD,2023-01-03 09:28:18,15.08836518,0.0002591,53.2161,242.3889,30.9787,329.1357,0.00016382,2.32e-05,0.0,0 STARLINK-3682,1 52140U 22029BE  23003.39465923  .00002320  00000-0  16382-3 0  9996,2 52140  53.2161 242.3889 0002591  30.9787 329.1357 15.08836518 45621,6917.891,95.438,541.548,537.964,0.0
52140.0,STARLINK-3682,PAYLOAD,2023-01-03 12:39:04,15.0883902,0.0002618999999999,53.216,241.7943,30.7777,329.3368,-3.8648e-05,-9.04e-06,0.0,0 STARLINK-3682,1 52140U 22029BE  23003.52713743 -.00000904  00000-0 -38648-4 0  9995,2 52140  53.2160 241.7943 0002619  30.7777 329.3368 15.08839020 45649,6917.8830000000025,95.438,541.56,537.937,0.0
